CARTOSAT-3              
1 44804U 19081A   26170.59424416  .00004842  00000+0  23212-3 0  9990
2 44804  97.4296 232.4236 0013406 140.5687 219.6526 15.19296523363833
GAOFEN-12 01            
1 44819U 19082A   26170.58046807  .00000288  00000+0  44309-4 0  9991
2 44819  97.8101 176.8968 0002207  67.5839 292.5607 14.80460227354443
CSG-1                   
1 44873U 19092A   26170.61675006  .00000285  00000+0  42355-4 0  9991
2 44873  97.8888 354.1840 0001451  90.0015 270.1365 14.82154821351837
NEMO-HD                 
1 46277U 20061F   26170.59153935  .00008552  00000+0  18551-3 0  9993
2 46277  97.1915 232.5203 0002170  79.5981 280.5512 15.44634764322358
SENTINEL-6A             
1 46984U 20086A   26170.58391345 -.00000051  00000+0  41848-4 0  9996
2 46984  66.0397 130.0742 0007924 270.1963  89.8144 12.80929975260634
CAS500-1                
1 47932U 21022A   26170.63022721  .00004710  00000+0  22081-3 0  9998
2 47932  97.3894  65.8341 0003300 288.0760  72.0116 15.20155481291136
GAOFEN-12 02            
1 48079U 21026A   26170.59178304  .00000258  00000+0  40851-4 0  9998
2 48079  97.9922 168.7626 0003849 212.0285 148.0694 14.80297622282115
PLEIADES NEO 3          
1 48268U 21034A   26170.34665170  .00000232  00000+0  36055-4 0  9995
2 48268  97.8930 245.0823 0001335  89.7246 270.4120 14.81675152277976
PLEIADES NEO 4          
1 49070U 21073E   26170.44793140  .00001237  00000+0  16369-3 0  9991
2 49070  97.8934 245.1785 0001397  88.3314 271.8059 14.81682225261708
LANDSAT 9               
1 49260U 21088A   26170.46263781  .00000249  00000+0  65420-4 0  9998
2 49260  98.2280 240.6125 0001334  85.0425 275.0926 14.57098444251338
CSG-2                   
1 51444U 22008A   26170.65048304 -.00000200  00000+0 -18550-4 0  9992
2 51444  97.8884 354.2117 0001440  87.7750 272.3628 14.82155587236951
GAOFEN-12 03            
1 52912U 22069A   26170.62212749  .00000047  00000+0  12874-4 0  9993
2 52912  97.8274  58.4307 0002142 101.9086 258.2366 14.80035817214971
SWOT                    
1 54754U 22173A   26170.56060811  .00000051  00000+0  35989-4 0  9996
2 54754  77.6105  32.1062 0000274  91.2103 268.9080 14.00169892179488
